0 COSMOS 1862
1 18152U 87055A   13283.46595554  .00001584  00000-0  12292-3 0  4444
2 18152 082.4977 160.3515 0017061 110.8946 249.4106 15.00595032427415
0 COSMOS 1862
1 18152U 87055A   13285.79982701  .00001650  00000-0  12812-3 0  4460
2 18152 082.4984 158.0994 0017034 103.2235 257.0891 15.00600836427768
0 COSMOS 1862
1 18152U 87055A   13286.80005337  .00001573  00000-0  12201-3 0  4471
2 18152 082.4970 157.1346 0017129 100.6438 259.6716 15.00604514427913
0 COSMOS 1862
1 18152U 87055A   13287.80027755  .00001954  00000-0  15208-3 0  4484
2 18152 082.4967 156.1695 0017141 097.5165 262.8007 15.00609790428067
0 COSMOS 1862
1 18152U 87055A   13288.80049699  .00002120  00000-0  16518-3 0  4498
2 18152 082.4970 155.2041 0017211 093.9868 266.3324 15.00613820428211
0 COSMOS 1862
1 18152U 87055A   13290.13411899  .00002385  00000-0  18610-3 0  4502
2 18152 082.4963 153.9173 0017250 089.7537 270.5664 15.00617487428412
0 COSMOS 1862
1 18152U 87055A   13291.13433231  .00002394  00000-0  18676-3 0  4510
2 18152 082.4959 152.9520 0017207 086.5188 273.8004 15.00620820428566
0 COSMOS 1862
1 18152U 87055A   13292.13454281  .00002743  00000-0  21432-3 0  4522
2 18152 082.4959 151.9867 0017143 083.3142 277.0032 15.00622590428713
0 COSMOS 1862
1 18152U 87055A   13293.13475134  .00003239  00000-0  25346-3 0  4533
2 18152 082.4959 151.0213 0017069 080.1267 280.1883 15.00625429428868
0 COSMOS 1862
1 18152U 87055A   13294.13495798  .00003440  00000-0  26935-3 0  4542
2 18152 082.4961 150.0560 0017000 077.0940 283.2181 15.00630441429016
0 COSMOS 1862
1 18152U 87055A   13295.13516141  .00003435  00000-0  26885-3 0  4558
2 18152 082.4962 149.0907 0016898 074.0602 286.2482 15.00636118429166
0 COSMOS 1862
1 18152U 87055A   13296.13536153  .00003257  00000-0  25481-3 0  4568
2 18152 082.4964 148.1253 0016841 071.0170 289.2877 15.00643224429311
